{"type": "FeatureCollection", "features": [ {"type": "Feature", "properties": {"norad_id": 30282, "name": "FENGYUN 1C DEB", "group": "fengyun-1c-debris", "lat": 20.935971122906327, "lon": -21.64351245180927, "alt_km": 697.5084831402492, "timestamp": "2025-12-03T22:42:32.910495+00:00", "meta": {"OBJECT_NAME": "FENGYUN 1C DEB", "OBJECT_ID": "1999-025YT", "EPOCH": "2025-12-03T11:25:55.140096", "MEAN_MOTION": 14.12949001, "ECCENTRICITY": 0.0210872, "INCLINATION": 98.5016, "RA_OF_ASC_NODE": 341.1904, "ARG_OF_PERICENTER": 28.6285, "MEAN_ANOMALY": 124.1456, "EPHEMERIS_TYPE": 0, "CLASSIFICATION_TYPE": "U", "NORAD_CAT_ID": 30282, "ELEMENT_SET_NO": 999, "REV_AT_EPOCH": 97220, "BSTAR": 0.00045745, "MEAN_MOTION_DOT": 1.011e-05, "MEAN_MOTION_DDOT": 0}, "tle": {"line1": "1 30282U 99025YT  25337.47633264  .00001011  00000+0  45745-3 0  9995", "line2": "2 30282  98.5016 341.1904 0210872  28.6285 124.1456 14.12949001972203"}}, "geometry": {"type": "Point", "coordinates": [-21.64351245180927, 20.935971122906327]}}, {"type": "Feature", "properties": {"norad_id": 30283, "name": "FENGYUN 1C DEB", "group": "fengyun-1c-debris", "lat": -61.32056015022916, "lon": -11.548822931504143, "alt_km": 979.5508289312829, "timestamp": "2025-12-03T22:42:32.910505+00:00", "meta": {"OBJECT_NAME": "FENGYUN 1C DEB", "OBJECT_ID": "1999-025YU", "EPOCH": "2025-12-03T11:43:12.277920", "MEAN_MOTION": 14.01971332, "ECCENTRICITY": 0.0185274, "INCLINATION": 98.8674, "RA_OF_ASC_NODE": 331.4238, "ARG_OF_PERICENTER": 68.9303, "MEAN_ANOMALY": 80.4697, "EPHEMERIS_TYPE": 0, "CLASSIFICATION_TYPE": "U", "NORAD_CAT_ID": 30283, "ELEMENT_SET_NO": 999, "REV_AT_EPOCH": 96561, "BSTAR": 4.2931e-05, "MEAN_MOTION_DOT": 3.5e-07, "MEAN_MOTION_DDOT": 0}, "tle": {"line1": "1 30283U 99025YU  25337.48833655  .00000035  00000+0  42931-4 0  9993", "line2": "2 30283  98.8674 331.4238 0185274  68.9303  80.4697 14.01971332965612"}}, "geometry": {"type": "Point", "coordinates": [-11.548822931504143, -61.32056015022916]}}, {"type": "Feature", "properties": {"norad_id": 30284, "name": "FENGYUN 1C DEB", "group": "fengyun-1c-debris", "lat": 33.29370234365658, "lon": 40.60420363836802, "alt_km": 798.792732558335, "timestamp": "2025-12-03T22:42:32.910514+00:00", "meta": {"OBJECT_NAME": "FENGYUN 1C DEB", "OBJECT_ID": "1999-025YV", "EPOCH": "2025-12-03T04:19:25.627872", "MEAN_MOTION": 14.28646835, "ECCENTRICITY": 0.00382629, "INCLINATION": 98.7221, "RA_OF_ASC_NODE": 45.6247, "ARG_OF_PERICENTER": 136.064, "MEAN_ANOMALY": 280.4954, "EPHEMERIS_TYPE": 0, "CLASSIFICATION_TYPE": "U", "NORAD_CAT_ID": 30284, "ELEMENT_SET_NO": 999, "REV_AT_EPOCH": 97379, "BSTAR": 0.002047299, "MEAN_MOTION_DOT": 5.143e-05, "MEAN_MOTION_DDOT": 0}, "tle": {"line1": "1 30284U 99025YV  25337.18015773  .00005143  00000+0  20473-2 0  9994", "line2": "2 30284  98.7221  45.6247 0038262 136.0640 280.4954 14.28646835973791"}}, "geometry": {"type": "Point", "coordinates": [40.60420363836802, 33.29370234365658]}}, {"type": "Feature", "properties": {"norad_id": 30286, "name": "FENGYUN 1C DEB", "group": "fengyun-1c-debris", "lat": -69.11465073611443, "lon": 138.9404233479095, "alt_km": 859.7296557199707, "timestamp": "2025-12-03T22:42:32.910523+00:00", "meta": {"OBJECT_NAME": "FENGYUN 1C DEB", "OBJECT_ID": "1999-025YX", "EPOCH": "2025-12-03T12:02:45.905280", "MEAN_MOTION": 14.12718309, "ECCENTRICITY": 0.0064335, "INCLINATION": 98.6901, "RA_OF_ASC_NODE": 342.1389, "ARG_OF_PERICENTER": 158.8302, "MEAN_ANOMALY": 353.0093, "EPHEMERIS_TYPE": 0, "CLASSIFICATION_TYPE": "U", "NORAD_CAT_ID": 30286, "ELEMENT_SET_NO": 999, "REV_AT_EPOCH": 97328, "BSTAR": 0.00012503, "MEAN_MOTION_DOT": 1.94e-06, "MEAN_MOTION_DDOT": 0}, "tle": {"line1": "1 30286U 99025YX  25337.50192020  .00000194  00000+0  12503-3 0  9990", "line2": "2 30286  98.6901 342.1389 0064335 158.8302 353.0093 14.12718309973280"}}, "geometry": {"type": "Point", "coordinates": [138.9404233479095, -69.11465073611443]}}, {"type": "Feature", "properties": {"norad_id": 30287, "name": "FENGYUN 1C DEB", "group": "fengyun-1c-debris", "lat": 61.68410490887133, "lon": -3.3342163097325836, "alt_km": 724.5507875035591, "timestamp": "2025-12-03T22:42:32.910532+00:00", "meta": {"OBJECT_NAME": "FENGYUN 1C DEB", "OBJECT_ID": "1999-025YY", "EPOCH": "2025-12-03T01:36:46.221696", "MEAN_MOTION": 13.68543586, "ECCENTRICITY": 0.04138916, "INCLINATION": 98.6385, "RA_OF_ASC_NODE": 12.2636, "ARG_OF_PERICENTER": 38.0321, "MEAN_ANOMALY": 14.482, "EPHEMERIS_TYPE": 0, "CLASSIFICATION_TYPE": "U", "NORAD_CAT_ID": 30287, "ELEMENT_SET_NO": 999, "REV_AT_EPOCH": 93726, "BSTAR": 0.001171961, "MEAN_MOTION_DOT": 1.795e-05, "MEAN_MOTION_DDOT": 0}, "tle": {"line1": "1 30287U 99025YY  25337.06720164  .00001795  00000+0  11720-2 0  9995", "line2": "2 30287  98.6385  12.2636 0413891  38.0321  14.4820 13.68543586937269"}}, "geometry": {"type": "Point", "coordinates": [-3.3342163097325836, 61.68410490887133]}}, {"type": "Feature", "properties": {"norad_id": 30288, "name": "FENGYUN 1C DEB", "group": "fengyun-1c-debris", "lat": 60.17550315612326, "lon": -104.34497298296937, "alt_km": 786.7529156688825, "timestamp": "2025-12-03T22:42:32.910542+00:00", "meta": {"OBJECT_NAME": "FENGYUN 1C DEB", "OBJECT_ID": "1999-025YZ", "EPOCH": "2025-12-03T03:51:18.800064", "MEAN_MOTION": 14.3243385, "ECCENTRICITY": 0.00201611, "INCLINATION": 99.3964, "RA_OF_ASC_NODE": 58.0152, "ARG_OF_PERICENTER": 351.6413, "MEAN_ANOMALY": 37.7597, "EPHEMERIS_TYPE": 0, "CLASSIFICATION_TYPE": "U", "NORAD_CAT_ID": 30288, "ELEMENT_SET_NO": 999, "REV_AT_EPOCH": 97432, "BSTAR": 0.0023451604, "MEAN_MOTION_DOT": 6.316e-05, "MEAN_MOTION_DDOT": 0}, "tle": {"line1": "1 30288U 99025YZ  25337.16063426  .00006316  00000+0  23452-2 0  9997", "line2": "2 30288  99.3964  58.0152 0020161 351.6413  37.7597 14.32433850974323"}}, "geometry": {"type": "Point", "coordinates": [-104.34497298296937, 60.17550315612326]}}, {"type": "Feature", "properties": {"norad_id": 30289, "name": "FENGYUN 1C DEB", "group": "fengyun-1c-debris", "lat": 74.66535287169933, "lon": -70.74664377262042, "alt_km": 806.1817365168772, "timestamp": "2025-12-03T22:42:32.910551+00:00", "meta": {"OBJECT_NAME": "FENGYUN 1C DEB", "OBJECT_ID": "1999-025ZA", "EPOCH": "2025-12-02T22:56:15.036576", "MEAN_MOTION": 14.25678792, "ECCENTRICITY": 0.00371012, "INCLINATION": 98.9282, "RA_OF_ASC_NODE": 73.2667, "ARG_OF_PERICENTER": 359.5778, "MEAN_ANOMALY": 61.738, "EPHEMERIS_TYPE": 0, "CLASSIFICATION_TYPE": "U", "NORAD_CAT_ID": 30289, "ELEMENT_SET_NO": 999, "REV_AT_EPOCH": 96942, "BSTAR": 0.002463701, "MEAN_MOTION_DOT": 5.843e-05, "MEAN_MOTION_DDOT": 0}, "tle": {"line1": "1 30289U 99025ZA  25336.95572959  .00005843  00000+0  24637-2 0  9990", "line2": "2 30289  98.9282  73.2667 0037101 359.5778  61.7380 14.25678792969425"}}, "geometry": {"type": "Point", "coordinates": [-70.74664377262042, 74.66535287169933]}}, {"type": "Feature", "properties": {"norad_id": 30290, "name": "FENGYUN 1C DEB", "group": "fengyun-1c-debris", "lat": 75.28652491985919, "lon": -46.485033407979564, "alt_km": 630.2861439937324, "timestamp": "2025-12-03T22:42:32.910560+00:00", "meta": {"OBJECT_NAME": "FENGYUN 1C DEB", "OBJECT_ID": "1999-025ZB", "EPOCH": "2025-12-03T12:33:48.811968", "MEAN_MOTION": 14.73879295, "ECCENTRICITY": 0.0016339, "INCLINATION": 102.6254, "RA_OF_ASC_NODE": 74.2589, "ARG_OF_PERICENTER": 81.6531, "MEAN_ANOMALY": 293.9908, "EPHEMERIS_TYPE": 0, "CLASSIFICATION_TYPE": "U", "NORAD_CAT_ID": 30290, "ELEMENT_SET_NO": 999, "REV_AT_EPOCH": 97743, "BSTAR": 0.0067964, "MEAN_MOTION_DOT": 0.00044869, "MEAN_MOTION_DDOT": 0}, "tle": {"line1": "1 30290U 99025ZB  25337.52348162  .00044869  00000+0  67964-2 0  9994", "line2": "2 30290 102.6254  74.2589 0016339  81.6531 293.9908 14.73879295977432"}}, "geometry": {"type": "Point", "coordinates": [-46.485033407979564, 75.28652491985919]}}, {"type": "Feature", "properties": {"norad_id": 30291, "name": "FENGYUN 1C DEB", "group": "fengyun-1c-debris", "lat": 81.89867076368222, "lon": 164.75052721290868, "alt_km": 640.9695730554322, "timestamp": "2025-12-03T22:42:32.910569+00:00", "meta": {"OBJECT_NAME": "FENGYUN 1C DEB", "OBJECT_ID": "1999-025ZC", "EPOCH": "2025-12-03T04:51:57.002976", "MEAN_MOTION": 14.54818439, "ECCENTRICITY": 0.01126156, "INCLINATION": 97.2337, "RA_OF_ASC_NODE": 227.2671, "ARG_OF_PERICENTER": 48.6527, "MEAN_ANOMALY": 105.3874, "EPHEMERIS_TYPE": 0, "CLASSIFICATION_TYPE": "U", "NORAD_CAT_ID": 30291, "ELEMENT_SET_NO": 999, "REV_AT_EPOCH": 97569, "BSTAR": 0.0037436703, "MEAN_MOTION_DOT": 0.00017481, "MEAN_MOTION_DDOT": 0}, "tle": {"line1": "1 30291U 99025ZC  25337.20274309  .00017481  00000+0  37437-2 0  9993", "line2": "2 30291  97.2337 227.2671 0112615  48.6527 105.3874 14.54818439975694"}}, "geometry": {"type": "Point", "coordinates": [164.75052721290868, 81.89867076368222]}}, {"type": "Feature", "properties": {"norad_id": 30293, "name": "FENGYUN 1C DEB", "group": "fengyun-1c-debris", "lat": 4.851549125771823, "lon": -11.180422937652507, "alt_km": 686.5389119069332, "timestamp": "2025-12-03T22:42:32.910578+00:00", "meta": {"OBJECT_NAME": "FENGYUN 1C DEB", "OBJECT_ID": "1999-025ZE", "EPOCH": "2025-12-03T12:13:18.419808", "MEAN_MOTION": 14.48846335, "ECCENTRICITY": 0.0076558, "INCLINATION": 99.2543, "RA_OF_ASC_NODE": 167.548, "ARG_OF_PERICENTER": 142.0706, "MEAN_ANOMALY": 274.5134, "EPHEMERIS_TYPE": 0, "CLASSIFICATION_TYPE": "U", "NORAD_CAT_ID": 30293, "ELEMENT_SET_NO": 999, "REV_AT_EPOCH": 98843, "BSTAR": 0.0012741, "MEAN_MOTION_DOT": 4.946e-05, "MEAN_MOTION_DDOT": 0}, "tle": {"line1": "1 30293U 99025ZE  25337.50924097  .00004946  00000+0  12741-2 0  9997", "line2": "2 30293  99.2543 167.5480 0076558 142.0706 274.5134 14.48846335988437"}}, "geometry": {"type": "Point", "coordinates": [-11.180422937652507, 4.851549125771823]}}]}